NORAD_CAT_ID,OBJECT_NAME,OBJECT_TYPE,EPOCH,MEAN_MOTION,ECCENTRICITY,INCLINATION,RA_OF_ASC_NODE,ARG_OF_PERICENTER,MEAN_ANOMALY,BSTAR,MEAN_MOTION_DOT,MEAN_MOTION_DDOT,TLE_LINE0,TLE_LINE1,TLE_LINE2,SEMIMAJOR_AXIS,PERIOD,APOGEE,PERIGEE,DECAYED
53720.0,STARLINK-4642,PAYLOAD,2022-12-18 02:49:14,15.088356400000002,0.0002333,53.2182,140.1906,45.279,314.8392,-0.0001479,-2.641e-05,0.0,0 STARLINK-4642,1 53720U 22107W   22352.11752462 -.00002641  00000-0 -14790-3 0  9990,2 53720  53.2182 140.1906 0002333  45.2790 314.8392 15.08835640 16185,6917.894,95.438,541.373,538.145,0.0
53720.0,STARLINK-4642,PAYLOAD,2022-12-18 10:46:09,15.08836142,0.0002257,53.2182,138.7038,44.9454,315.172,-9.2863e-05,-1.766e-05,0.0,0 STARLINK-4642,1 53720U 22107W   22352.44872295 -.00001766  00000-0 -92863-4 0  9998,2 53720  53.2182 138.7038 0002257  44.9454 315.1720 15.08836142 16695,6917.892,95.438,541.319,538.196,0.0
53720.0,STARLINK-4642,PAYLOAD,2022-12-18 17:07:41,15.08839303,0.0002283,53.2179,137.5146,44.7761,315.3415,-2.2537e-05,-6.47e-06,0.0,0 STARLINK-4642,1 53720U 22107W   22352.71367875 -.00000647  00000-0 -22537-4 0  9999,2 53720  53.2179 137.5146 0002283  44.7761 315.3415 15.08839303 16275,6917.8830000000025,95.438,541.327,538.168,0.0
53720.0,STARLINK-4642,PAYLOAD,2022-12-19 09:01:32,15.08843271,0.0002277,53.2181,134.5408,42.6071,317.5097,0.00010041,1.31e-05,0.0,0 STARLINK-4642,1 53720U 22107W   22353.37607237  .00001310  00000-0  10041-3 0  9993,2 53720  53.2181 134.5408 0002277  42.6071 317.5097 15.08843271 16831,6917.87,95.437,541.311,538.16,0.0
53720.0,STARLINK-4642,PAYLOAD,2022-12-19 16:58:28,15.08842921,0.000228,53.2181,133.0546,43.6,316.5172,0.00016284,2.305e-05,0.0,0 STARLINK-4642,1 53720U 22107W   22353.70726900  .00002305  00000-0  16284-3 0  9999,2 53720  53.2181 133.0546 0002280  43.6000 316.5172 15.08842921 16884,6917.871,95.437,541.314,538.159,0.0
53720.0,STARLINK-4642,PAYLOAD,2022-12-20 05:41:32,15.08848095,0.0002195,53.2175,130.6765,42.1818,317.9343,9.8381e-05,1.278e-05,0.0,0 STARLINK-4642,1 53720U 22107W   22354.23718680  .00001278  00000-0  98381-4 0  9991,2 53720  53.2175 130.6765 0002195  42.1818 317.9343 15.08848095 16961,6917.856,95.437,541.239,538.202,0.0
53720.0,STARLINK-4642,PAYLOAD,2022-12-20 21:35:25,15.08836335,0.0002226,53.2178,127.7026,38.673,321.4421,-4.8352e-05,-1.058e-05,0.0,0 STARLINK-4642,1 53720U 22107W   22354.89959622 -.00001058  00000-0 -48352-4 0  9997,2 53720  53.2178 127.7026 0002226  38.6730 321.4421 15.08836335 16601,6917.892,95.438,541.297,538.217,0.0
53720.0,STARLINK-4642,PAYLOAD,2022-12-21 08:43:07,15.08834463,0.0002368,53.2174,125.6219,38.9681,321.1481,-0.00016732,-2.95e-05,0.0,0 STARLINK-4642,1 53720U 22107W   22355.36328249 -.00002950  00000-0 -16732-3 0  9993,2 53720  53.2174 125.6219 0002368  38.9681 321.1481 15.08834463 17135,6917.897,95.438,541.4,538.124,0.0
53720.0,STARLINK-4642,PAYLOAD,2022-12-22 02:12:21,15.08837151,0.0002162,53.2186,122.3494,40.8758,319.2396,-6.7815e-05,-1.367e-05,0.0,0 STARLINK-4642,1 53720U 22107W   22356.09191827 -.00001367  00000-0 -67815-4 0  9994,2 53720  53.2186 122.3494 0002162  40.8758 319.2396 15.08837151 16786,6917.889,95.438,541.25,538.258,0.0
53720.0,STARLINK-4642,PAYLOAD,2022-12-22 08:33:53,15.08842896,0.0002148,53.2186,121.1592,38.8638,321.2509,-5.8058e-05,-1.212e-05,0.0,0 STARLINK-4642,1 53720U 22107W   22356.35687387 -.00001212  00000-0 -58058-4 0  9992,2 53720  53.2186 121.1592 0002148  38.8638 321.2509 15.08842896 17287,6917.871999999999,95.437,541.222,538.251,0.0
53720.0,STARLINK-4642,PAYLOAD,2022-12-22 19:41:36,15.08834942,0.00024,53.2166,119.0808,34.3717,325.743,-7.115599999999997e-06,-4.02e-06,0.0,0 STARLINK-4642,1 53720U 22107W   22356.82055623 -.00000402  00000-0 -71156-5 0  9991,2 53720  53.2166 119.0808 0002400  34.3717 325.7430 15.08834942 17354,6917.896,95.438,541.4209999999998,538.101,0.0
53720.0,STARLINK-4642,PAYLOAD,2022-12-23 08:24:41,15.08828906,0.0002209,53.2174,116.6998,38.903,321.2121,5.721100000000001e-05,6.22e-06,0.0,0 STARLINK-4642,1 53720U 22107W   22357.35047995  .00000622  00000-0  57211-4 0  9990,2 53720  53.2174 116.6998 0002209  38.9030 321.2121 15.08828906 17431,6917.9140000000025,95.438,541.307,538.251,0.0
53720.0,STARLINK-4642,PAYLOAD,2022-12-23 14:46:14,15.08827947,0.0002255,53.2169,115.5107,35.7423,324.372,5.6077e-05,6.04e-06,0.0,0 STARLINK-4642,1 53720U 22107W   22357.61544213  .00000604  00000-0  56077-4 0  9993,2 53720  53.2169 115.5107 0002255  35.7423 324.3720 15.08827947 17014,6917.917,95.438,541.342,538.222,0.0
53720.0,STARLINK-4642,PAYLOAD,2022-12-23 17:57:00,15.08829426,0.0002217,53.2191,114.9149,36.3243,323.7899,1.8768e-05,1e-07,0.0,0 STARLINK-4642,1 53720U 22107W   22357.74792331  .00000010  00000-0  18768-4 0  9999,2 53720  53.2191 114.9149 0002217  36.3243 323.7899 15.08829426 17499,6917.913000000001,95.438,541.311,538.244,0.0
53720.0,STARLINK-4642,PAYLOAD,2022-12-24 08:15:27,15.088464300000002,0.0002248,53.2184,112.2404,35.0435,325.0705,1.2332e-05,-9.2e-07,0.0,0 STARLINK-4642,1 53720U 22107W   22358.34407338 -.00000092  00000-0  12332-4 0  9998,2 53720  53.2184 112.2404 0002248  35.0435 325.0705 15.08846430 17124,6917.861,95.437,541.281,538.1709999999998,0.0
53720.0,STARLINK-4642,PAYLOAD,2022-12-24 19:23:09,15.08844411,0.0002295,53.2181,110.1581,33.7346,326.3792,-2.6282e-05,-7.07e-06,0.0,0 STARLINK-4642,1 53720U 22107W   22358.80775458 -.00000707  00000-0 -26282-4 0  9993,2 53720  53.2181 110.1581 0002295  33.7346 326.3792 15.08844411 17657,6917.8669999999975,95.437,541.32,538.144,0.0
53720.0,STARLINK-4642,PAYLOAD,2022-12-25 08:06:14,15.08840908,0.000221,53.2185,107.7802,49.4869,310.6316,5.673e-05,6.15e-06,0.0,0 STARLINK-4642,1 53720U 22107W   22359.33767340  .00000615  00000-0  56730-4 0  9990,2 53720  53.2185 107.7802 0002210  49.4869 310.6316 15.08840908 17734,6917.878000000002,95.437,541.271,538.214,0.0
53720.0,STARLINK-4642,PAYLOAD,2022-12-25 17:38:35,15.08827262,0.0002292,53.2182,105.9957,33.5997,326.514,-5.3801e-05,-1.144e-05,0.0,0 STARLINK-4642,1 53720U 22107W   22359.73512826 -.00001144  00000-0 -53801-4 0  9997,2 53720  53.2182 105.9957 0002292  33.5997 326.5140 15.08827262 17333,6917.919,95.438,541.37,538.1990000000002,0.0
53720.0,STARLINK-4642,PAYLOAD,2022-12-26 00:00:07,15.08833269,0.0002303,53.2187,104.8063,35.3621,324.7523,-3.1568e-05,-7.91e-06,0.0,0 STARLINK-4642,1 53720U 22107W   22360.00008449 -.00000791  00000-0 -31568-4 0  9993,2 53720  53.2187 104.8063 0002303  35.3621 324.7523 15.08833269 17374,6917.901,95.438,541.359,538.173,0.0
53720.0,STARLINK-4642,PAYLOAD,2022-12-26 07:57:03,15.08834704,0.000246,53.2182,103.3198,45.7671,314.3523,-4.7237e-05,-1.04e-05,0.0,0 STARLINK-4642,1 53720U 22107W   22360.33128476 -.00001040  00000-0 -47237-4 0  9990,2 53720  53.2182 103.3198 0002460  45.7671 314.3523 15.08834704 17882,6917.897,95.438,541.4630000000002,538.06,0.0
53720.0,STARLINK-4642,PAYLOAD,2022-12-26 15:53:59,15.088244199999998,0.000222,53.2182,101.8331,34.437,325.6766,3.0153e-05,1.91e-06,0.0,0 STARLINK-4642,1 53720U 22107W   22360.66248946  .00000191  00000-0  30153-4 0  9994,2 53720  53.2182 101.8331 0002220  34.4370 325.6766 15.08824420 17933,6917.928000000001,95.439,541.3290000000002,538.257,0.0
53720.0,STARLINK-4642,PAYLOAD,2022-12-26 23:50:53,15.08872318,0.0002213,53.2189,100.3456,36.3461,323.7681,-0.00035559,-5.948e-05,0.0,0 STARLINK-4642,1 53720U 22107W   22360.99367121 -.00005948  00000-0 -35559-3 0  9998,2 53720  53.2189 100.3456 0002213  36.3461 323.7681 15.08872318 17525,6917.781999999997,95.436,541.178,538.116,0.0
53720.0,STARLINK-4642,PAYLOAD,2022-12-27 07:47:48,15.08849562,0.000232,53.2181,98.8588,29.8849,330.2275,0.0001661,2.357e-05,0.0,0 STARLINK-4642,1 53720U 22107W   22361.32486697  .00002357  00000-0  16610-3 0  9992,2 53720  53.2181  98.8588 0002320  29.8849 330.2275 15.08849562 17572,6917.851,95.437,541.321,538.111,0.0
53720.0,STARLINK-4642,PAYLOAD,2022-12-27 12:33:57,15.08853307,0.000235,53.2185,97.9669,32.3267,327.7869,0.00024026,3.539e-05,0.0,0 STARLINK-4642,1 53720U 22107W   22361.52358064  .00003539  00000-0  24026-3 0  9993,2 53720  53.2185  97.9669 0002350  32.3267 327.7869 15.08853307 17608,6917.84,95.437,541.33,538.0790000000002,0.0
53720.0,STARLINK-4642,PAYLOAD,2022-12-28 06:03:12,15.0884778,0.0002576,53.2183,94.697,33.5113,326.6041,0.00010503,1.384e-05,0.0,0 STARLINK-4642,1 53720U 22107W   22362.25222510  .00001384  00000-0  10503-3 0  9991,2 53720  53.2183  94.6970 0002576  33.5113 326.6041 15.08847780 17718,6917.857,95.437,541.504,537.94,0.0
53720.0,STARLINK-4642,PAYLOAD,2022-12-29 05:54:01,15.08834853,0.0002641999999999,53.2208,90.2377,33.1667,326.9491,-0.00021293,-3.675e-05,0.0,0 STARLINK-4642,1 53720U 22107W   22363.24584663 -.00003675  00000-0 -21293-3 0  9996,2 53720  53.2208  90.2377 0002642  33.1667 326.9491 15.08834853 17868,6917.896,95.438,541.589,537.933,0.0
53720.0,STARLINK-4642,PAYLOAD,2022-12-29 15:26:20,15.08827441,0.0002346,53.2199,88.4519,33.2619,326.8520000000001,-0.00029545,-4.986e-05,0.0,0 STARLINK-4642,1 53720U 22107W   22363.64329608 -.00004986  00000-0 -29545-3 0  9990,2 53720  53.2199  88.4519 0002346  33.2619 326.8520 15.08827441 17927,6917.919,95.438,541.4069999999998,538.161,0.0
53720.0,STARLINK-4642,PAYLOAD,2022-12-30 12:06:21,15.08828046,0.0002648999999999,53.2184,84.5867,22.753,337.358,4.285e-05,3.93e-06,0.0,0 STARLINK-4642,1 53720U 22107W   22364.50441204  .00000393  00000-0  42850-4 0  9994,2 53720  53.2184  84.5867 0002649  22.7530 337.3580 15.08828046 18055,6917.917,95.438,541.614,537.9490000000002,0.0
53720.0,STARLINK-4642,PAYLOAD,2022-12-31 05:35:34,15.08840131,0.0002541,53.2207,81.3169,27.2406,332.872,0.00026692,3.962e-05,0.0,0 STARLINK-4642,1 53720U 22107W   22365.23303788  .00003962  00000-0  26692-3 0  9999,2 53720  53.2207  81.3169 0002541  27.2406 332.8720 15.08840131 18161,6917.88,95.438,541.503,537.987,0.0
